<?xml version="1.0" encoding="utf-8" ?>
<kml xmlns="http://www.opengis.net/kml/2.2">
<Document id="root_doc">
<Schema name="aoi_dabil_kurgan_25km" id="aoi_dabil_kurgan_25km">
	<SimpleField name="area" type="int"></SimpleField>
</Schema>
<Folder><name>aoi_dabil_kurgan_25km</name>
  <Placemark>
	<Style><LineStyle><color>ff0000ff</color></LineStyle><PolyStyle><fill>0</fill></PolyStyle></Style>
	<ExtendedData><SchemaData schemaUrl="#aoi_dabil_kurgan_25km">
		<SimpleData name="area">26</SimpleData>
	</SchemaData></ExtendedData>
      <Polygon><outerBoundaryIs><LinearRing><coordinates>66.7684913009241,37.7233286657554 66.7685834776383,37.7217847057919 66.7677999755673,37.7211164246137 66.7640552965511,37.7203329225426 66.76327179448,37.7203790108997 66.7629952643373,37.7197107297215 66.7625459028554,37.7190885369004 66.7609558545348,37.7193996333109 66.7601608303745,37.7195148542037 66.7595501596427,37.7198720389714 66.7592851515892,37.7197683401679 66.758824268018,37.7198489947928 66.7588703563752,37.719238324061 66.7583057740003,37.7175676211155 66.7570383441795,37.7176367536512 66.755863091073,37.7178441512582 66.7550565448234,37.7174063118656 66.7540886893239,37.7180285046867 66.7530286571101,37.7186967858649 66.7519225365393,37.7190885369004 66.7521990666822,37.7176828420082 66.7536278057529,37.7154014683309 66.7543882636453,37.7137883758317 66.7561972316623,37.7113456929044 66.7554943842162,37.7113456929044 66.7548491472165,37.7111267732081 66.753961946342,37.7106774117262 66.7536508499315,37.7109078535117 66.7530171350211,37.7109885081367 66.7528788699497,37.7112765603687 66.7520377574323,37.711495480065 66.7513349099862,37.7112189499223 66.7506090183616,37.71157613469 66.7496469239068,37.7114493917079 66.7493761548085,37.7115991788686 66.7490765804873,37.7118065764756 66.7485465643804,37.7120600624398 66.7482239458806,37.7127052994394 66.747832194845,37.7131431388321 66.7469795602383,37.7129126970465 66.7458734396675,37.7128896528679 66.7448134074537,37.7123135484039 66.74375337524,37.7124057251182 66.7435574997222,37.7121291949755 66.7435114113651,37.7116452672257 66.7441336041862,37.7109769860475 66.745401034007,37.7096634678696 66.7464380220421,37.7079121102991 66.7469219497919,37.7063911945142 66.746553242935,37.705354206479 66.7465993312921,37.7040406883011 66.7472445682917,37.7033263187658 66.7487654840767,37.7027041259446 66.7492955001835,37.7016671379095 66.7491572351122,37.7004688406244 66.7492955001835,37.6989479248395 66.7488115724338,37.6987866155895 66.7483103615503,37.6984985633575 66.7481490523004,37.6975767962151 66.7484947149788,37.6966089407156 66.7492090845141,37.6957102177518 66.7505456468706,37.6944197437524 66.7518361208699,37.6934979766101 66.7519052534056,37.6921153258965 66.7527809321909,37.6914700888968 66.7535874784404,37.6914240005397 66.7542788037972,37.6911705145756 66.7562145147962,37.6910552936828 66.7581732699738,37.6904561450402 66.7585419768307,37.6900183056476 66.7585419768307,37.6895343778978 66.7584498001165,37.6874143134704 66.7590259045805,37.6866768997564 66.7557766754036,37.6815380479377 66.7514789361023,37.6747169710841 66.7490132089966,37.6708570711754 66.7483852551304,37.6711336013181 66.7477400181307,37.670511408497 66.7456199537032,37.671663617425 66.7450668934178,37.671456219818 66.7438225077756,37.6705805410327 66.7405963227773,37.6694744204619 66.740296748456,37.6687370067479 66.745527776989,37.6653034241426 66.7434422788294,37.6616854881087 66.7482354679698,37.6607176326092 66.7498946488261,37.6591967168243 66.7526138618961,37.6545417927553 66.7539504242525,37.6524678166849 66.754918279752,37.6526521701134 66.7616471798914,37.6545878811124 66.7635828908904,37.6570305640397 66.764965541604,37.6597036887526 66.7651038066753,37.6630220504652 66.7658873087463,37.6652342916069 66.7651498950324,37.6664786772491 66.7652881601038,37.6677691512485 66.7663481923175,37.6696587738903 66.7660255738177,37.6709031595325 66.7650116299611,37.6718249266749 66.7647811881755,37.673806726031 66.766532545746,37.6769868226722 66.7675925779597,37.6797060357423 66.7673794193085,37.681549570027 66.7723569618774,37.686204494096 66.7755831468757,37.6890619722374 66.7765740465537,37.6894076349157 66.7774727695176,37.6903178799688 66.7784060587491,37.6907441972722 66.7791204282844,37.6904791892188 66.7793739142486,37.6896380767013 66.7808948300335,37.6882439038985 66.7808948300335,37.6872530042204 66.7814363682297,37.686987996167 66.7818742076223,37.6861814499174 66.7828305410325,37.6857436105248 66.7834066454965,37.6850753293466 66.7838675290677,37.6848564096502 66.7841325371211,37.6849370642752 66.7846740753173,37.6843609598112 66.7840634045855,37.6832087508832 66.7839251395141,37.6828976544727 66.7840979708533,37.6825865580621 66.7845012439781,37.6827017789549 66.7850658263528,37.6832202729725 66.7855036657454,37.6837157228115 66.7856534529061,37.6846951004003 66.786886316459,37.6858012209712 66.7877619952443,37.6856629558998 66.7877504731549,37.6863081928995 66.7874508988337,37.6865847230422 66.7874969871908,37.6870571287027 66.7869784931732,37.6876447552559 66.7858378063345,37.6884858677734 66.7855612761918,37.6888200083625 66.7855843203703,37.6895458999871 66.7846395090494,37.6905828880223 66.7849390833707,37.6919424945573 66.7852386576919,37.6929564384139 66.7860452039415,37.6937399404849 66.7869439269053,37.6948460610558 66.7876122080836,37.6954912980554 66.7887183286544,37.6949612819486 66.7899396701181,37.6944312658417 66.7910457906889,37.6937629846635 66.7916218951529,37.6925185990213 66.7923132205097,37.6916890085931 66.7929123691523,37.6917811853074 66.7932119434735,37.6927490408069 66.7941337106159,37.6935325428779 66.7945945941871,37.6951225911985 66.796484216829,37.6970122138404 66.7977746908283,37.6983257320183 66.7985121045422,37.6995009851248 66.7987425463278,37.700745370767 66.7985581928993,37.7021510656591 66.7978207791854,37.7021971540163 66.7974290281499,37.7030958769801 66.7977055582926,37.7045707044079 66.796691614436,37.705561604086 66.7961615983292,37.7059879213893 66.7963344296684,37.7062414073535 66.7967837911503,37.7067368571925 66.7980857872389,37.7070364315138 66.7981779639531,37.707992764924 66.7997564901844,37.7080388532811 66.8005976027018,37.7092141063876 66.8019111208797,37.7101013072622 66.8014963256657,37.7104354478513 66.8012774059693,37.7114724358865 66.8008971770232,37.7123250704931 66.8016288296921,37.7124518134753 66.8021358016204,37.7134657573319 66.8026427735487,37.715447556688 66.8041176009765,37.7190424485433 66.8053158982616,37.7219921033989 66.8047628379762,37.7246191397547 66.804670661262,37.7266009391108 66.8054080749759,37.7282601199671 66.8060994003327,37.7312097748227 66.8049126251368,37.7309793330371 66.8024008096738,37.731140642287 66.797999371569,37.7311636864656 66.7943583913566,37.7283062083242 66.7894960696805,37.7316937025725 66.7871628466018,37.7337100681964 66.7855497541026,37.7341709517675 66.7847662520316,37.7347701004101 66.7841210150319,37.735507514124 66.7834700169874,37.7369938636411 66.7824099847736,37.7377773657121 66.7813269083813,37.7385378236046 66.7795755508108,37.7396208999969 66.7787690045612,37.7399204743182 66.7783542093471,37.7405887554964 66.7775476630976,37.7407731089249 66.7769946028121,37.7406809322106 66.7760037031341,37.7406578880321 66.7751049801703,37.7415566109959 66.7746095303312,37.7418677074064 66.7744712652599,37.742178803817 66.7739527712423,37.7421672817277 66.7729157832071,37.7422940247098 66.771798140547,37.7425014223168 66.7710492047438,37.7428470849952 66.7704961444584,37.7432964464771 66.7704270119226,37.7439186392983 66.7708994175831,37.7446445309229 66.7709570280295,37.7452206353869 66.7707381083332,37.7457391294045 66.7698854737265,37.7464534989398 66.7690443612091,37.7471448242966 66.7680880277989,37.7478591938319 66.7672353931922,37.7483431215817 66.7660370959071,37.7488385714207 66.7651959833896,37.7479513705462 66.764965541604,37.7461654467078 66.7645046580328,37.7457852177616 66.7633524491049,37.7448864947978 66.7666132003711,37.7417985748708 66.7659449191929,37.7417755306922 66.7658757866572,37.7412455145853 66.7662214493356,37.7402315707287 66.766774509621,37.7390793618007 66.7667975537996,37.7381806388369 66.7669358188709,37.7373510484088 66.7676501884063,37.7361297069451 66.7676962767634,37.7349544538386 66.7680419394418,37.7345396586245 66.7687793531557,37.7323043733043 66.7691595821019,37.7312328190012 66.7681686824239,37.7300921321625 66.7681456382453,37.7290551441274 66.7684913009237,37.7282946862349 66.7682608591381,37.7279720677351 66.7684682567452,37.726981168057 66.7680304173525,37.7262898427002 66.7681456382453,37.7256676498791 66.7684913009241,37.7233286657554</coordinates></LinearRing></outerBoundaryIs></Polygon>
  </Placemark>
</Folder>
</Document></kml>
