<?xml version="1.0" encoding="utf-8" ?>
<kml xmlns="http://www.opengis.net/kml/2.2">
<Document id="root_doc">
<Schema name="aoi_kuchuk_sapalli_tepe_25km" id="aoi_kuchuk_sapalli_tepe_25km">
	<SimpleField name="area" type="int"></SimpleField>
</Schema>
<Folder><name>aoi_kuchuk_sapalli_tepe_25km</name>
  <Placemark>
	<Style><LineStyle><color>ff0000ff</color></LineStyle><PolyStyle><fill>0</fill></PolyStyle></Style>
	<ExtendedData><SchemaData schemaUrl="#aoi_kuchuk_sapalli_tepe_25km">
		<SimpleData name="area">26</SimpleData>
	</SchemaData></ExtendedData>
      <Polygon><outerBoundaryIs><LinearRing><coordinates>66.7938056370658,37.4834591772442 66.792477467742,37.4836362664873 66.7908836645534,37.4834591772442 66.7887290787613,37.4823966417851 66.7892529677724,37.4806183706349 66.788485581052,37.475836961069 66.7863605101338,37.4744792768713 66.7828556188626,37.4665471545205 66.7848331154114,37.4668127883853 66.7886257767028,37.4671226945609 66.7888618956937,37.4637579989405 66.789673554725,37.4559513148036 66.7897473419096,37.4542542095565 66.7938499093766,37.4557299532496 66.7977753876004,37.4556709235019 66.7983287914854,37.4489046386688 66.7986018040686,37.4456948961361 66.8032282605467,37.4461302405256 66.8032577754205,37.4471042313631 66.8046375957736,37.4474215162571 66.8068659687503,37.4491924086889 66.8068364538765,37.450682909819 66.8077661724031,37.450682909819 66.8080022913941,37.44981222104 66.8091976437855,37.4503287313327 66.8096698817673,37.4506386375082 66.8121565098903,37.450808348033 66.8121565098903,37.4529334189511 66.8183177398093,37.4538705161963 66.8177864720798,37.4620166213825 66.8213872866911,37.4640236328052 66.8250471310501,37.458888044753 66.8277624994456,37.4498564933509 66.8301827191024,37.4450160540373 66.8340786824523,37.4402346444714 66.8344107247832,37.4215295931606 66.8427929489604,37.4218837716469 66.8426158597172,37.4226511583674 66.8479285370126,37.4221198906378 66.846888137709,37.4358664431396 66.8562148378497,37.4363386811214 66.8536470438236,37.4464917977304 66.8556540552463,37.4463147084872 66.8608191581724,37.4467279167213 66.8596385632179,37.4495908594861 66.8591441890807,37.4523431214739 66.8587900105943,37.463322654551 66.8622727657102,37.4666283204237 66.8621547062147,37.4819170250849 66.8578750495045,37.481238182986 66.8492567063364,37.4809725491213 66.8393987384661,37.4807659450042 66.8375688162866,37.479732924419 66.8236968255708,37.4794377756804 66.8230474983458,37.4797624392929 66.8168862684269,37.4766117265079 66.8165173325036,37.4777406704332 66.8054787696787,37.4825294587175 66.7994134630999,37.4858793969009 66.798941225118,37.4841085044692 66.7960487674794,37.4841085044692 66.7938056370658,37.4834591772442</coordinates></LinearRing></outerBoundaryIs></Polygon>
  </Placemark>
</Folder>
</Document></kml>
