<?xml version="1.0" encoding="utf-8" ?>
<kml xmlns="http://www.opengis.net/kml/2.2">
<Document id="root_doc">
<Schema name="aoi_kalchajanS_khosijat_25km" id="aoi_kalchajanS_khosijat_25km">
	<SimpleField name="area" type="int"></SimpleField>
</Schema>
<Folder><name>aoi_kalchajanS_khosijat_25km</name>
  <Placemark>
	<Style><LineStyle><color>ff0000ff</color></LineStyle><PolyStyle><fill>0</fill></PolyStyle></Style>
	<ExtendedData><SchemaData schemaUrl="#aoi_kalchajanS_khosijat_25km">
		<SimpleData name="area">26</SimpleData>
	</SchemaData></ExtendedData>
      <Polygon><outerBoundaryIs><LinearRing><coordinates>67.9778450926829,38.316886507379 67.9750390453897,38.3183578600992 67.9698278147024,38.3209452543565 67.9686981073506,38.3171188262295 67.9678234952073,38.3154424862881 67.9601341967805,38.3192689144152 67.9568179590704,38.3204350639396 67.956508200603,38.3180481016318 67.9568726223294,38.3159891188777 67.955998010186,38.3137297041741 67.9555607041144,38.3127822076855 67.9549047450069,38.310814330363 67.9546496497984,38.3102312556008 67.9536657111372,38.3091744325943 67.9526817724759,38.3089557795584 67.9513334120883,38.3080811674151 67.9497663986648,38.3099761603923 67.9484544804498,38.3088464530405 67.945611990984,38.3092473169395 67.9447373788407,38.3077531878613 67.9444093992869,38.3055302153304 67.9437716612658,38.3036534434395 67.9445369468912,38.3023779673971 67.9438809877837,38.2980049066805 67.9437716612658,38.2968751993287 67.9442089673374,38.2965472197749 67.9443911782006,38.2958001552359 67.9437352190931,38.2950895328694 67.9455755488114,38.2938322779134 67.9461950657462,38.292155937972 67.9451382427397,38.2902245028221 67.9430610388993,38.2876735507374 67.9460857392283,38.286106537314 67.944300072769,38.2834462587114 67.9427695015182,38.2799842523107 67.9437898823521,38.2793647353758 67.9460857392283,38.277834164125 67.9471790044075,38.2771053206722 67.9514062964336,38.2804898874561 67.95177071816,38.2798703705213 67.9514791807789,38.278485567961 67.950057936046,38.277173649746 67.9494839718269,38.276490359009 67.9490466657552,38.2761259372826 67.9488553443489,38.2755793046931 67.9477620791697,38.2728096995725 67.9495841878017,38.271752876566 67.952681772476,38.2698396625025 67.9505681264629,38.2642275679161 67.9502948101681,38.2638084829308 67.9505316842903,38.2632982925138 67.9509872114482,38.262223248421 67.9529915309434,38.261312194105 67.953082636375,38.2606380139112 67.9526999935622,38.2599638337174 67.9527728779075,38.2594490880288 67.9536110478782,38.259631298892 67.9552145034743,38.2597588464962 67.9563442108261,38.2588842343529 67.9576014657822,38.2558823103818 67.9596786696226,38.2568298068704 67.9656551859353,38.2536957800235 67.9687527706096,38.2563560586261 67.9692994031992,38.2543881813037 67.9697367092708,38.253550011333 67.970060133553,38.2537140011098 67.9719961239744,38.2511767148399 67.9726885252546,38.2517051263431 67.9720690083197,38.2531628132487 67.9724334300461,38.2545111736363 67.972943620463,38.255750207506 67.9736360217432,38.2587566867487 67.9735995795705,38.2605241321217 67.9744013073686,38.2620592586441 67.9751848140804,38.2628974286148 67.9781548511504,38.2676166899715 67.9800498441276,38.27049562161 67.9811795514794,38.2722812880693 67.9823457010038,38.2728096995725 67.9912740333003,38.2798794810644 67.9937156588671,38.2827948548755 67.9952097879453,38.2849813852338 67.9961937266065,38.2858195552045 67.9999837125609,38.2902290580938 68.0016600525023,38.2918689558625 68.0027533176815,38.2953309622632 68.0045754263134,38.3028380498267 68.0020973585739,38.3014122498222 68.0004392397189,38.3099624945776 68.0001841445104,38.3114930658284 67.9984349202238,38.3160118952356 67.9969407911456,38.3188179425288 67.9956653151032,38.3187450581835 67.9902354313801,38.3198747655353 67.9856437176276,38.3210044728871 67.9851699693833,38.3205671668155 67.983785166823,38.3209315885419 67.9837487246504,38.3206400511607 67.9827283438165,38.3208587041966 67.9821088268817,38.3198018811901 67.9823274799175,38.3187815003562 67.9819630581911,38.317688235177 67.9821452690543,38.3159390108904 67.9821817112269,38.3152466096102 67.9808333508393,38.3138982492226 67.9787925891715,38.3155381469913 67.9778450926829,38.316886507379</coordinates></LinearRing></outerBoundaryIs></Polygon>
  </Placemark>
</Folder>
</Document></kml>
