<?xml version="1.0" encoding="utf-8" ?>
<kml xmlns="http://www.opengis.net/kml/2.2">
<Document id="root_doc">
<Schema name="aoi_balalyk_25km" id="aoi_balalyk_25km">
	<SimpleField name="area" type="int"></SimpleField>
</Schema>
<Folder><name>aoi_balalyk_25km</name>
  <Placemark>
	<Style><LineStyle><color>ff0000ff</color></LineStyle><PolyStyle><fill>0</fill></PolyStyle></Style>
	<ExtendedData><SchemaData schemaUrl="#aoi_balalyk_25km">
		<SimpleData name="area">25</SimpleData>
	</SchemaData></ExtendedData>
      <Polygon><outerBoundaryIs><LinearRing><coordinates>67.1646152467663,37.4222287007538 67.172065927945,37.4235211658563 67.171913873227,37.4245855488818 67.1695570250991,37.4266382875738 67.1684926420736,37.4277026705994 67.1710015449194,37.4282348621121 67.1729022288936,37.4265622602149 67.1744227760729,37.4250417130356 67.1779200345853,37.4266382875738 67.1799727732774,37.4244334941638 67.1787563355339,37.4236732205742 67.1801248279953,37.4200999347028 67.1859029072767,37.4216204818821 67.187271399738,37.4217725366001 67.188449823802,37.4216584955616 67.1887919469173,37.4205560988566 67.1899703709813,37.4192636337542 67.1913768771222,37.419795825267 67.1920611233529,37.418541373844 67.1931255063784,37.4171348677032 67.192859410622,37.4165266488315 67.1964707101729,37.4137896639087 67.1961285870575,37.4128393219216 67.1954063271473,37.4118509662551 67.1954823545063,37.4109386379475 67.1935056431732,37.4101403506783 67.1948741356346,37.4070992563197 67.1968888606472,37.4052745997046 67.2030850904029,37.4078595299094 67.2174542612473,37.414283841742 67.2181004937985,37.4170208266647 67.2204573419265,37.4198338389464 67.2239546004389,37.4235591795358 67.2255511749771,37.4228749333051 67.2291244608485,37.4224947965102 67.2318614457713,37.4227989059461 67.2377155524116,37.425155754074 67.237981648168,37.4255358908689 67.2408706878087,37.4254978771894 67.2455083567056,37.4265242465354 67.2487395194616,37.4269043833302 67.2505261623973,37.4283489031506 67.2512484223075,37.428614998907 67.2524268463714,37.4300595187273 67.2540614345892,37.4310478743939 67.2513624633459,37.431922189022 67.2449761651928,37.4321502710989 67.244596028398,37.4312759564708 67.2399203458216,37.4319602027014 67.240110414219,37.4326824626116 67.2372974019373,37.4324923942142 67.2351828910161,37.4321550228088 67.2347219751523,37.4324543805347 67.234750485412,37.4329105446885 67.234817009351,37.4339939345538 67.2345699204344,37.4342410234704 67.2333724895307,37.4340699619127 67.2330113595756,37.4345261260665 67.2290104198101,37.4336328045987 67.2276419273487,37.4331766404449 67.2252850792208,37.4362937621624 67.2239926141184,37.4381184187776 67.2188227537087,37.4397910206749 67.216085768786,37.4370540357521 67.2136528932991,37.4370540357521 67.2118282366839,37.4389547197262 67.2096234432739,37.4411595131362 67.2083309781715,37.4429081423924 67.2111439904532,37.4435923886231 67.2122083734787,37.4454930725973 67.2126645376325,37.4471656744945 67.2144796908278,37.4464244077446 67.2165704431993,37.4475648181291 67.2185091408529,37.4482490643598 67.2198016059554,37.4490853653084 67.22166427625,37.4496555705007 67.2224625635191,37.4501117346545 67.2222724951217,37.4509670424428 67.2234319123459,37.4508149877249 67.2270432118968,37.4528107058977 67.2240211243779,37.4545973488334 67.2205808863847,37.4561369028525 67.2192504076028,37.4559658412948 67.2182620519363,37.4553386155833 67.2159052038084,37.4535899863271 67.2141375677124,37.4525636169811 67.2123604281967,37.4547684103911 67.2109159083763,37.4547684103911 67.2103837168636,37.4554526566218 67.2081028960946,37.4547684103911 67.2074186498639,37.4538560820835 67.2090152244022,37.4521834801862 67.2076467319408,37.4508910150838 67.2040734460694,37.452791699058 67.2022487894543,37.4523355349042 67.1979152299932,37.452715671699 67.1979912573522,37.4541601915193 67.1971549564036,37.4553766292628 67.1954823545063,37.4563649849293 67.1910727676863,37.4588738877752 67.1901604393788,37.4587218330573 67.1901604393788,37.4607745717493 67.187499481815,37.4608505991083 67.1857508525588,37.4603944349545 67.1844583874563,37.459406079288 67.1836981138667,37.4580375868266 67.1827857855591,37.457125258519 67.1817974298926,37.457125258519 67.1802768827132,37.4565930670062 67.1776919525084,37.4540081368014 67.1760193506112,37.4532478632118 67.1757912685343,37.4543122462373 67.1770077062777,37.4555286839807 67.1765515421239,37.4562889575704 67.1740426392781,37.4558327934166 67.1721419553039,37.4563649849293 67.1700131892529,37.4557567660576 67.1679604505608,37.4544643009552 67.1672001769712,37.4544643009552 67.1690248335863,37.4575814226728 67.165299492997,37.4581896415445 67.1630186722281,37.4583416962624 67.1603577146643,37.4578095047497 67.1597494957926,37.4561369028524 67.1576967571005,37.4556047113397 67.158761140126,37.4514992339556 67.1602816873053,37.4434403339052 67.1575447023826,37.4428321150335 67.1646152467663,37.4222287007538</coordinates></LinearRing></outerBoundaryIs></Polygon>
  </Placemark>
</Folder>
</Document></kml>
