<?xml version="1.0" encoding="utf-8" ?>
<kml xmlns="http://www.opengis.net/kml/2.2">
<Document id="root_doc">
<Schema name="aoi_kampyr_wv3" id="aoi_kampyr_wv3">
	<SimpleField name="area_sqkm" type="int"></SimpleField>
</Schema>
<Folder><name>aoi_kampyr_wv3</name>
  <Placemark>
	<Style><LineStyle><color>ff0000ff</color></LineStyle><PolyStyle><fill>0</fill></PolyStyle></Style>
	<ExtendedData><SchemaData schemaUrl="#aoi_kampyr_wv3">
		<SimpleData name="area_sqkm">25</SimpleData>
	</SchemaData></ExtendedData>
      <Polygon><outerBoundaryIs><LinearRing><coordinates>67.0045407921173,37.4149848006486 67.0115911294649,37.4150346399012 67.0117558501777,37.4150346399012 67.0114224427638,37.4154065174014 67.0096128945157,37.4157438908035 67.0104103225572,37.4163572969893 67.0115451240009,37.4170013734844 67.0110850693616,37.4177374609073 67.0120971895681,37.4187495811138 67.0113917724545,37.419731031011 67.0100116085365,37.4186268998767 67.0082634009071,37.417921482763 67.0073126213191,37.4170320437937 67.0078033462677,37.4161426048243 67.0063311714219,37.415682550185 67.0052270402875,37.4159279126593 67.0036015138952,37.4162039454429 67.0020679984308,37.416541318845 66.9991236487391,37.4175227687423 66.9964860021402,37.4186268998767 66.9944310914179,37.4193936576089 66.9917321042005,37.4208351621454 66.9901065778082,37.4214178980219 66.9890637872924,37.4221539854448 66.9888797654367,37.4231661056514 66.9890944576017,37.426846542766 66.9907506543033,37.4269692240031 66.9916094229634,37.427275927096 66.9951499961635,37.4269404021472 66.9961367792746,37.431191160164 66.9993383409041,37.4304349689527 66.9986635940997,37.4270305646217 67.000503812657,37.4269998943124 67.0009340633221,37.4270390804583 67.0014350455169,37.4270238991797 67.0019132557938,37.4270922149335 67.0023535128741,37.4271149868515 67.0037855357509,37.4268158724567 67.0047976559574,37.4258344225595 67.004858996576,37.4251596757551 67.0055030730711,37.4246076101879 67.0055950839989,37.4240555446207 67.0061164792568,37.4236875009093 67.006453852659,37.423871522765 67.0074659728655,37.4243929180229 67.0079566978142,37.4245769398786 67.0086314446185,37.4238101821464 67.0093675320414,37.4231661056514 67.0102569710108,37.4234728087443 67.009214180495,37.4245769398786 67.0095515538972,37.4249449835901 67.0098582569901,37.4251903460644 67.0097049054436,37.425681071013 67.0098275866808,37.4261717959616 67.0098582569901,37.4267238615288 67.0094595429693,37.4271839161682 67.0088768070928,37.427490619261 67.0087541258557,37.4279200035911 67.0093982023507,37.4282573769933 67.0090608289485,37.4285487449315 67.0087847961649,37.4288094425604 67.0085547688453,37.4287327667872 67.008524098536,37.428870783179 67.0080640438967,37.4290854753441 67.0079413626595,37.4293001675091 67.0065765338962,37.4293001675091 67.0059171222465,37.4298675682309 67.0063311714219,37.4302202767877 67.0056410894629,37.430941029056 67.0050583535864,37.4306956665817 67.0047823208028,37.4309103587467 67.0054570676071,37.4314010836953 67.0050123481224,37.4318841410666 67.0041382443077,37.4313090727675 67.0037932033282,37.4314010836953 67.0032488053384,37.4310943806025 67.0031107889466,37.4313627458087 67.0023977042556,37.4317614598295 67.001692287142,37.4315774379737 67.0004348044611,37.4316387785923 66.9953742034285,37.4333256456032 66.9966623564186,37.4356259187998 66.9971837516765,37.4367300499342 66.9976438063159,37.4373741264293 66.9980731906459,37.4383249060172 66.9982265421924,37.4389076418937 66.9984412343574,37.4396743996259 66.9988092780689,37.4403798167395 66.9990546405432,37.4410545635439 67.0001281013683,37.440747860451 67.0006188263169,37.4411159041625 67.0012935731212,37.4414839478739 67.0019683199256,37.4419440025132 67.0025510558021,37.4426187493176 67.0037471978643,37.4431094742662 67.0053727242566,37.4432934961219 67.0056487570402,37.442557408699 67.0063848444631,37.4426187493176 67.0066302069374,37.4422507056061 67.0075196459068,37.4419746728225 67.0077956786904,37.4410545635439 67.0075809865254,37.4399504324095 67.0072436131232,37.4359939625113 67.0068755694117,37.4337550299332 67.0087464582784,37.4338470408611 67.0099119300313,37.432988272201 67.0125495766301,37.4327429097267 67.0129176203416,37.4301666037464 67.0138683999295,37.4294918569421 67.0163833652912,37.4291851538492 67.016540417755,37.4316617798016 67.0161457045106,37.4329370072066 67.0235238059254,37.433210270222 67.0273191255832,37.4385237177429 67.0283514525301,37.4394649570181 67.0292926918052,37.4388273433155 67.0304464689812,37.4371270401088 67.0321164096306,37.4381290044985 67.035274115586,37.4401936583924 67.0364582553192,37.4412259853393 67.0390694352438,37.4421368620572 67.0421664160846,37.4389791561019 67.0414377147103,37.4381290044985 67.0460224608569,37.4359429003756 67.0458972153082,37.4357341577944 67.0460072795783,37.435472280738 67.0471382848363,37.4371953558627 67.0513738615744,37.4313050197537 67.0511613236736,37.4310773005743 67.0494762017455,37.430735721805 67.0494762017455,37.4304301985726 67.0494686111062,37.4300165087299 67.049559698778,37.4298798772222 67.0498177805147,37.429783096571 67.0502352656771,37.429760324653 67.0507628151095,37.4297793012513 67.0510588500428,37.4296236931453 67.0511765049523,37.429627488465 67.0512979551813,37.4298438216855 67.05142320073,37.4300753361846 67.0515332650001,37.4303144413231 67.0518406858924,37.4302802834461 67.0522088318992,37.4301075964017 67.0532487494854,37.4301000057624 67.0536434627298,37.4301455495983 67.0542127606785,37.4300772338444 67.0544252985793,37.4298191521077 67.0547592867092,37.4297963801898 67.0549338714135,37.4294775733385 67.0555031693622,37.4291359945693 67.0551008654784,37.4285211527847 67.0551084561177,37.4281871646549 67.0551919531502,37.4276178667062 67.0552374969861,37.4274281007233 67.0559016779262,37.4274318960429 67.0563115724493,37.4274281007233 67.0568505078407,37.4272914692156 67.0569150282749,37.4274964164771 67.0568960516766,37.427830404607 67.0568922563569,37.4283693399984 67.0577158407227,37.4289386379471 67.0585242438098,37.4294130529043 67.0586305127602,37.4294092575847 67.0588734132183,37.4291739477659 67.0592795124217,37.4291815384052 67.0594844596832,37.4294130529043 67.0595186175601,37.429693906559 67.0598601963293,37.4296559533624 67.0601903891396,37.429272626077 67.0605775117447,37.4289272519881 67.0611430143737,37.4284034978754 67.0612986224797,37.428153006778 67.0616629731668,37.4280846910241 67.0617447527289,37.4279583414777 67.06273704863,37.4269043466105 67.0627294579907,37.4267677151028 67.0627066860727,37.4266045163575 67.0625776452043,37.4264640895302 67.0625738498847,37.4263654112191 67.0626573469172,37.4263122767439 67.0631811010299,37.4263160720636 67.0634809312829,37.4263046861046 67.0640388432726,37.4263957737764 67.0643614454435,37.426433726973 67.064167884141,37.4261149201217 67.0644828956726,37.4260503996875 67.0645512114264,37.4259441307371 67.0650142404247,37.4258834056226 67.0655835383734,37.4257695460328 67.0657353511597,37.4256746630414 67.0654772694229,37.4257088209183 67.0645050805649,37.4250753324046 67.0627262026262,37.4246459480745 67.0627262026262,37.4236031575587 67.0647504430392,37.4239712012702 67.0649958055135,37.4231124326101 67.0652411679878,37.4219469608571 67.0698417143811,37.4235418169401 67.0706391424226,37.4198000392069 67.0658545741736,37.4185732268354 67.0635236306677,37.4184505455982 67.062174137059,37.4188185893097 67.0607633028317,37.4188799299283 67.0590457655115,37.4180825018868 67.0570215250985,37.4169170301338 67.0554880096341,37.415444855288 67.0530957255096,37.4149541303393 67.0510101444779,37.4149541303393 67.0487175388586,37.415444855288 67.047322039786,37.4147854436383 67.0470153366931,37.4141567022979 67.0470153366931,37.4136813125039 67.0467853093735,37.4132212578645 67.045941875868,37.4128072086892 67.0451904532905,37.4128072086892 67.0447457338058,37.4123778243591 67.0440556518468,37.4123164837405 67.0436070985734,37.4127957073232 67.0434269105064,37.4128953858284 67.0431048722588,37.4128647155191 67.042763665068,37.4127113639726 67.0422231008668,37.4121899687147 67.0420812506864,37.411553559797 67.0423381145267,37.4110935051577 67.0421387575163,37.4097133412397 67.0420927520524,37.4084251882496 67.0427368285474,37.4074437383523 67.0426064797329,37.4069990188676 67.0415943595264,37.4065849696922 67.041157307619,37.4064546208778 67.0405745717426,37.4064929587644 67.0394551054535,37.4067843267026 67.0378755845252,37.4070603594862 67.037062821329,37.4071523704141 67.0371088267929,37.4066923157748 67.0372621783394,37.4049057702587 67.0373848595766,37.40398566098 67.0374845380817,37.4026975079899 67.0374730367158,37.4018464069072 67.0377068978241,37.4016968891494 67.0378525817932,37.4011601587368 67.0380059333396,37.4001557061076 67.0379829306077,37.3993889483754 67.0376302220509,37.3993199401795 67.0371394971022,37.3988598855402 67.0371471646796,37.3986451933752 67.0372315080301,37.3982541469317 67.0376378896282,37.398307819973 67.0380979442675,37.3982924848184 67.0385426637522,37.3982541469317 67.0380212684943,37.3975333946635 67.0383969797831,37.3974183810036 67.0389720480822,37.3972573618799 67.0395701191133,37.3971806861066 67.0401528549898,37.3972420267252 67.0411649751964,37.3973723755397 67.0426486514082,37.3975218932975 67.0436952757127,37.3977365854625 67.0440824883674,37.3979934493028 67.0447380662285,37.3978746018543 67.0447793115439,37.3976300701038 67.0450083321559,37.3963246526153 67.0449854300947,37.3960498278809 67.0450999404007,37.3938741320667 67.0447793115439,37.3927519310678 67.0446189971155,37.3924084001498 67.0438174249734,37.391629730069 67.0425681418468,37.3918057144036 67.0405592365884,37.3925724721358 67.0392710835982,37.3913609949189 67.040835269372,37.3901341825473 67.039884489784,37.3891220623408 67.034586626314,37.3862097009305 67.0345516897564,37.3862313856904 67.0304111980024,37.3883016315674 67.0215781489272,37.3929021779607 67.0161188338738,37.3955091542502 67.0139105716051,37.3961532307453 67.0069177410872,37.3963985932196 67.0023785353125,37.3969813290961 67.0023171946939,37.3944050231158 67.0011670580956,37.3946350504355 66.9989587958268,37.3952484566213 66.9920886465461,37.3972113564158 66.9904937904631,37.3980087844573 66.9854025191211,37.3999716842518 66.9823354881922,37.4003397279632 66.9803725883978,37.4001557061075 66.9781029855103,37.3989442288906 66.9784710292218,37.4045262251811 66.9789004135518,37.4105376058017 66.9803725883977,37.4114577150804 66.9813693734496,37.4115497260083 66.983378278708,37.4112123526061 66.9838843388113,37.4116264017815 66.9947722986088,37.4109056495132 66.9955237211864,37.4107676331214 66.9981767029399,37.4117644181733 66.9992348286103,37.4126231868334 67.0038660453129,37.4136353070399 67.0040193968594,37.4139266749781 67.0045407921173,37.4149848006486</coordinates></LinearRing></outerBoundaryIs></Polygon>
  </Placemark>
</Folder>
</Document></kml>
