<?xml version="1.0" encoding="utf-8" ?>
<kml xmlns="http://www.opengis.net/kml/2.2">
<Document id="root_doc">
<Schema name="aoi_dzaharkutan_jarkutan__dabil_kurgan_25km" id="aoi_dzaharkutan_jarkutan__dabil_kurgan_25km">
	<SimpleField name="area" type="int"></SimpleField>
</Schema>
<Folder><name>aoi_dzaharkutan_jarkutan__dabil_kurgan_25km</name>
  <Placemark>
	<Style><LineStyle><color>ff0000ff</color></LineStyle><PolyStyle><fill>0</fill></PolyStyle></Style>
	<ExtendedData><SchemaData schemaUrl="#aoi_dzaharkutan_jarkutan__dabil_kurgan_25km">
		<SimpleData name="area">39</SimpleData>
	</SchemaData></ExtendedData>
      <Polygon><outerBoundaryIs><LinearRing><coordinates>66.9593489487984,37.657456881343 66.9585654467274,37.6575029697002 66.9560997196215,37.656097274808 66.9536570366942,37.6551524634871 66.9556849244074,37.6523410737028 66.9560997196215,37.6501749209183 66.9464211646265,37.6460269687775 66.9448541604844,37.6440451694214 66.9449924255558,37.6424320769223 66.9447619837702,37.6408189844231 66.9447619837702,37.6390676268526 66.9418584172717,37.6397128638522 66.9413053569863,37.6388832734241 66.9404872886474,37.6388141408884 66.9337583885081,37.6317165338921 66.9426073530749,37.6224988624683 66.9426073530749,37.6160464924717 66.9446121966096,37.614249046544 66.9449348151094,37.6139494722227 66.9489675463573,37.6147560184723 66.9504884621422,37.6146638417581 66.9508110806421,37.6135116328301 66.9558807999252,37.6114837451169 66.9559729766394,37.6077505881902 66.9571712739245,37.6079810299758 66.9591530732806,37.6066905559765 66.9609966075654,37.6063679374767 66.9621488164933,37.6077044998331 66.981943765876,37.6172908781138 66.9833379386788,37.6162538900787 66.9841560070177,37.6159888820252 66.9846284126781,37.6160580145609 66.9844786255175,37.6170258700604 66.9857921436954,37.6175213198995 66.9878200314086,37.6179822034707 67.0009552131876,37.6151708136864 67.0080528201839,37.6145716650439 67.01275383261,37.6145255766867 67.0128460093242,37.6069670861192 67.017408756679,37.6072436162619 67.017777463536,37.6090871505467 67.0247828938181,37.6097323875464 67.0254281308177,37.608810620404 67.0259811911031,37.6013443065507 67.0360284529551,37.6021738969788 67.047596630592,37.6091793272609 67.0531272334462,37.6126359540449 67.049163634734,37.6185813521132 67.0286082274589,37.6332835380342 67.011601623682,37.645635217742 67.0045501050428,37.6389984943169 67.0010013015447,37.6392289361025 66.9861147621952,37.6523180295243 66.9758370585577,37.6589547529494 66.9663428569912,37.654898977523 66.9615842341187,37.6526176038455 66.9599250532624,37.6561894515223 66.9593489487984,37.657456881343</coordinates></LinearRing></outerBoundaryIs></Polygon>
  </Placemark>
</Folder>
</Document></kml>
