<?xml version="1.0" encoding="utf-8" ?>
<kml xmlns="http://www.opengis.net/kml/2.2">
<Document id="root_doc">
<Schema name="aoi_dalverzin_tepe_25km" id="aoi_dalverzin_tepe_25km">
	<SimpleField name="prodDesc" type="string"></SimpleField>
	<SimpleField name="volNum" type="string"></SimpleField>
</Schema>
<Folder><name>aoi_dalverzin_tepe_25km</name>
  <Placemark>
	<Style><LineStyle><color>ff0000ff</color></LineStyle><PolyStyle><fill>0</fill></PolyStyle></Style>
	<ExtendedData><SchemaData schemaUrl="#aoi_dalverzin_tepe_25km">
		<SimpleData name="prodDesc">16NOV12064859-M2AS-015105921050_01_P001_PIXEL_SHAPE</SimpleData>
		<SimpleData name="volNum">Vol. 1</SimpleData>
	</SchemaData></ExtendedData>
      <MultiGeometry><Polygon><outerBoundaryIs><LinearRing><coordinates>67.8430018809752,38.1279869575477 67.8430155698483,38.1279870923804 67.8450440223178,38.1269796564529 67.8493481094569,38.1257782038714 67.8515224129227,38.1250640810035 67.8516045431343,38.1250648839672 67.8570816156568,38.1258861480808 67.8571911240473,38.1258872135238 67.8606087460964,38.1244496093263 67.8623241250354,38.1224222494551 67.8731337822513,38.1103057606235 67.8766080924271,38.1086735585059 67.877840489039,38.1077444504188 67.8791509396636,38.1088708825197 67.8812233901125,38.1076036771368 67.8808921477321,38.1068867464835 67.8830766254474,38.1054475378704 67.8827254308113,38.1051413844703 67.8827028375697,38.1048275406672 67.8817688071534,38.1032505095421 67.8808850922304,38.10286357748 67.8806617068805,38.1013581930333 67.8803194531935,38.1004681185768 67.8801656442086,38.0997853204498 67.8795413093136,38.0994441094411 67.8789600431368,38.0980759001447 67.879312369594,38.0974087435873 67.8791854466297,38.0967586447767 67.8784068609776,38.0957670680319 67.8782415446184,38.0949435647146 67.8788286163231,38.0941380576171 67.8784437501107,38.0924580893094 67.8786884120181,38.0916709432289 67.8783826438379,38.0910840250498 67.8771938338888,38.0900777084373 67.8764252186295,38.0893349540468 67.8746207111958,38.0892203519601 67.8737235207206,38.0888332373122 67.8731091034962,38.0878540133708 67.8706859845236,38.0843700096373 67.8682595802397,38.0802262195709 67.8670984449789,38.0783332518902 67.8650922809565,38.0753506319475 67.863046915952,38.0722594497234 67.8401038318523,38.0740359841766 67.8380530311047,38.0748160203651 67.8372110826071,38.0752835438671 67.8365344719428,38.0756769946769 67.8348302957771,38.0744380375345 67.833570124715,38.0745336842407 67.8327766800264,38.0753909899994 67.832645145905,38.0759196085487 67.8330209435585,38.0763775624838 67.8327760214522,38.0771537953269 67.8313997389923,38.0785244105696 67.830229291625,38.0798537990862 67.8289272932858,38.0799922380418 67.8275363040042,38.0805623660424 67.8275089441005,38.0805620930541 67.8270798230558,38.0800170713722 67.8241395237381,38.0799336123627 67.8236333705304,38.0799285464896 67.8231567913118,38.0823462851503 67.8230187446595,38.0841293404613 67.8244522661517,38.0885993760278 67.8260985543679,38.0891890174899 67.8263212846295,38.0898076842107 67.8236001836502,38.0905375059252 67.8221102291088,38.0912904272056 67.8196382668629,38.0918388027582 67.8182890724007,38.0923443495891 67.8176281624134,38.0942951709666 67.8158440338997,38.0946124608132 67.8169136147017,38.0970241094023 67.8155462591009,38.0977998092665 67.8148974498966,38.098993703008 67.8130966165563,38.1011817308917 67.8130953919955,38.1012574216605 67.8132131628271,38.1024374172749 67.813081647501,38.103798744807 67.8136124458647,38.1056750540775 67.8145424047558,38.1074147975265 67.8151298672146,38.1083291606747 67.8162827002728,38.1098332137806 67.8166820952273,38.1105293795392 67.8180217865441,38.1097858353412 67.8186154074441,38.1103217277516 67.8203208723242,38.1106633073184 67.819547218038,38.1128076657107 67.8198156541225,38.1139891671054 67.8200421692657,38.1152243202345 67.8220719231078,38.1149851369183 67.8236753075181,38.1148714264655 67.8274097507752,38.11417336009 67.8289421733031,38.1125015484271 67.8290044682473,38.1111719575532 67.830195698706,38.1120057448988 67.8332210517152,38.112846936101 67.8343696447366,38.1129232265794 67.8334638097098,38.1147959984663 67.8335895911603,38.1163545682339 67.8329413350737,38.1183812980341 67.8321120977395,38.1197357116338 67.8320505368633,38.1210220510331 67.8333274486206,38.1225055413147 67.8338936366932,38.1221975364386 67.8362594754605,38.1206312343011 67.8390438207813,38.1228866176103 67.8390184625724,38.1253521226584 67.8388870456074,38.1258699300411 67.8392999155403,38.1265985962842 67.8401542551185,38.12625014955 67.8401953207237,38.1262505550233 67.8430018809752,38.1279869575477</coordinates></LinearRing></outerBoundaryIs></Polygon></MultiGeometry>
  </Placemark>
</Folder>
</Document></kml>
