<?xml version="1.0" encoding="utf-8" ?>
<kml xmlns="http://www.opengis.net/kml/2.2">
<Document id="root_doc">
<Schema name="aoi_zar_tepe_25km" id="aoi_zar_tepe_25km">
	<SimpleField name="prodDesc" type="string"></SimpleField>
	<SimpleField name="volNum" type="string"></SimpleField>
</Schema>
<Folder><name>aoi_zar_tepe_25km</name>
  <Placemark>
	<Style><LineStyle><color>ff0000ff</color></LineStyle><PolyStyle><fill>0</fill></PolyStyle></Style>
	<ExtendedData><SchemaData schemaUrl="#aoi_zar_tepe_25km">
		<SimpleData name="prodDesc">17MAY29064346-M2AS-015105921010_01_P001_PIXEL_SHAPE</SimpleData>
		<SimpleData name="volNum">Vol. 1</SimpleData>
	</SchemaData></ExtendedData>
      <MultiGeometry><Polygon><outerBoundaryIs><LinearRing><coordinates>67.1540232176006,37.4424531104846 67.1542130397228,37.4424560759978 67.1549730417802,37.4396776679425 67.1562110070519,37.4378692508725 67.1592408493133,37.4354398447732 67.1606968776302,37.4335806990813 67.1710221600236,37.4016309472022 67.1690510110504,37.4012976067971 67.1691717882631,37.4007911669383 67.1673505244989,37.4004276745643 67.1676784057622,37.3992106491662 67.1690003514045,37.3972519660679 67.1692899138371,37.3970509636244 67.1720142787589,37.3976230672951 67.1720684818747,37.397623905509 67.1739777940603,37.3915644928176 67.1741295536086,37.3908962980035 67.141635120368,37.3905088980912 67.1405720610166,37.3912924980313 67.1377557558359,37.3906208895627 67.1376744602994,37.3906196088427 67.1368136308973,37.390898051308 67.1367729830005,37.3908974106271 67.1368655198504,37.3904446355618 67.1084642291967,37.390090923576 67.1096027964155,37.3917097627587 67.1093778606402,37.3920306165173 67.110549546555,37.3934120455352 67.111817751236,37.3947301147109 67.1123610887836,37.3952254693093 67.1145399330434,37.3975314019236 67.1145805840051,37.3975320503443 67.1165299928442,37.3992610900096 67.1166972590511,37.4007021551411 67.1236056130293,37.4014609289226 67.1268682017236,37.4016424578761 67.1271527760415,37.4016469672795 67.1279142320431,37.4010101268455 67.1292231987866,37.4007063998347 67.1292909538193,37.400707472192 67.1289508792532,37.4051146308362 67.1256643441522,37.4053437496671 67.1256873833541,37.4071394119347 67.1246297779603,37.4071442656083 67.1237583966419,37.4072926616454 67.123649979447,37.4072909405259 67.1183431697513,37.4058979549407 67.1176679628242,37.4047083653365 67.1138846243424,37.4042046364404 67.1137762122122,37.4042029063879 67.1131221731146,37.4070368178619 67.113396175823,37.4085444795065 67.1132836730713,37.4097864105391 67.1140065481527,37.4123178464073 67.1140591218748,37.414005827119 67.1142136210977,37.4154142436313 67.1141203648447,37.4164293661941 67.1150639784289,37.4171906555984 67.1135646453523,37.4175019974317 67.1139159559862,37.4180916148378 67.1135073980392,37.4203237988721 67.1133354493706,37.4239332623641 67.1338361083109,37.4311479489323 67.1363574237699,37.4333831887139 67.1379981399985,37.4344905557896 67.1387496415818,37.4359083475176 67.1373260461158,37.4375297963686 67.1371048745281,37.4387916655121 67.1392522866643,37.4391607677095 67.1389405846671,37.4413404901033 67.1540232176006,37.4424531104846</coordinates></LinearRing></outerBoundaryIs></Polygon></MultiGeometry>
  </Placemark>
</Folder>
</Document></kml>
