{
"type": "FeatureCollection",
"name": "dalverzin_tepe_aoi_",
"crs": { "type": "name", "properties": { "name": "urn:ogc:def:crs:OGC:1.3:CRS84" } },
"features": [
{ "type": "Feature", "properties": { "id": "2" }, "geometry": { "type": "MultiPolygon", "coordinates": [ [ [ [ 67.856943412118994, 38.109022233312743 ], [ 67.861170314082528, 38.109133728824219 ], [ 67.862060355842317, 38.109232926032917 ], [ 67.862876018292297, 38.109200569127701 ], [ 67.86390058319742, 38.10883812633142 ], [ 67.86273995162145, 38.107297221458964 ], [ 67.86308784202663, 38.107038933499574 ], [ 67.863525963178418, 38.106711071753381 ], [ 67.863875562423019, 38.106342097694942 ], [ 67.868003553873464, 38.104600675938464 ], [ 67.869569606666502, 38.107111543071312 ], [ 67.870650842190983, 38.108027671214003 ], [ 67.874244079389442, 38.10627082489659 ], [ 67.875482944295939, 38.10521594036679 ], [ 67.87638544520722, 38.104499990820955 ], [ 67.877409418102872, 38.104167614447739 ], [ 67.880367149352139, 38.10230386692178 ], [ 67.880095606505762, 38.101737712905539 ], [ 67.880080584018401, 38.101053239494718 ], [ 67.879511434101417, 38.099960935494551 ], [ 67.879169962140395, 38.098971437633622 ], [ 67.878852427748328, 38.098082803935398 ], [ 67.879224632279417, 38.097059859086031 ], [ 67.879206236499797, 38.096596754030422 ], [ 67.878780392128519, 38.09612976151643 ], [ 67.878384017399711, 38.09540139288859 ], [ 67.87826468947074, 38.09487694192908 ], [ 67.878786291046765, 38.094076825254042 ], [ 67.878529551273161, 38.0925446939141 ], [ 67.878620704376132, 38.091579449274988 ], [ 67.878192431226651, 38.091273450383326 ], [ 67.876864713242156, 38.089831722165719 ], [ 67.876412226677573, 38.089444975787288 ], [ 67.87478443336208, 38.089308634814955 ], [ 67.873975479078638, 38.088918465006849 ], [ 67.871302484659324, 38.088852564674582 ], [ 67.870956218999169, 38.08818503428239 ], [ 67.869660719844589, 38.087971305366338 ], [ 67.865676774177942, 38.087047309097755 ], [ 67.865115411058596, 38.085471952694547 ], [ 67.865023832246493, 38.084806864382344 ], [ 67.862566336659839, 38.082347688137972 ], [ 67.85628773557147, 38.084903305668362 ], [ 67.85431430659365, 38.084078986472683 ], [ 67.853414051155454, 38.084653899367062 ], [ 67.852430161106639, 38.085690917878715 ], [ 67.852066773795073, 38.086130170441976 ], [ 67.851321452298095, 38.086565688809642 ], [ 67.844178910268056, 38.08895118506981 ], [ 67.847531557212463, 38.096008555440477 ], [ 67.849379912296229, 38.099951497971226 ], [ 67.851960691185312, 38.105934426687 ], [ 67.853689419293531, 38.106152579671544 ], [ 67.855981612742141, 38.106174922363124 ], [ 67.856943412118994, 38.109022233312743 ] ] ] ] } }
]
}
