{
"type": "FeatureCollection",
"name": "interpreted_cropmarks",
"crs": { "type": "name", "properties": { "name": "urn:ogc:def:crs:EPSG::32642" } },
"features": [
{"type":"Feature","properties":{"id":16,"cropmark":0,"replant_2024":0,"is_detected_with_natural_color":null,"comments":"Invented","derived_product_name":null,"replant_2025":0},"geometry":{"type":"MultiLineString","coordinates":[[[335972.699071654817089,4141630.029056361876428],[335977.203224570374005,4141605.870417996309698]]]}},
{"type":"Feature","properties":{"id":14,"cropmark":1,"replant_2024":0,"is_detected_with_natural_color":1,"comments":null,"derived_product_name":null,"replant_2025":0},"geometry":{"type":"MultiLineString","coordinates":[[[336887.889953960082494,4141838.791865108069032],[336885.02408591483254,4141834.368116568773985],[336881.335225463844836,4141828.467200216837227],[336885.168096414534375,4141821.423737309407443],[336890.453363180276938,4141817.587275919038802],[336900.434341129730456,4141820.37868836754933],[336905.910931382502895,4141824.676920292899013],[336901.544236658024602,4141836.533946915064007],[336887.889953960082494,4141838.791865108069032]]]}},
{"type":"Feature","properties":{"id":6,"cropmark":1,"replant_2024":1,"is_detected_with_natural_color":1,"comments":null,"derived_product_name":null,"replant_2025":0},"geometry":{"type":"MultiLineString","coordinates":[[[335576.009525525441859,4142633.822393834590912],[335574.626643494644668,4142630.030977901536971],[335574.319542159500998,4142622.04634318780154],[335574.856969496002421,4142616.134642485994846],[335580.538344196334947,4142613.984933140221983],[335588.062326907529496,4142615.366889148019254],[335592.975948270002846,4142617.363047826569527],[335596.766212828573771,4142616.034147652797401],[335599.34830097440863,4142620.050184509251267],[335599.194750306778587,4142625.885109877213836],[335597.275366962130647,4142628.95612322865054],[335596.123736955283675,4142636.096229271031916],[335576.853128174494486,4142635.40525126690045],[335576.009525525441859,4142633.822393834590912]]]}},
{"type":"Feature","properties":{"id":13,"cropmark":1,"replant_2024":0,"is_detected_with_natural_color":1,"comments":null,"derived_product_name":null,"replant_2025":0},"geometry":{"type":"MultiLineString","coordinates":[[[336839.517664707498625,4141953.971843658946455],[336835.699495191336609,4141961.761675899382681],[336830.912391280988231,4141960.610909423790872],[336824.760468661319464,4141960.731218842789531],[336822.964695781236514,4141960.268585770390928],[336822.291501608444378,4141956.299729292280972],[336821.807025393121876,4141951.829429324250668],[336822.101750347064808,4141946.597261379938573],[336823.853737943980377,4141944.820863323751837],[336826.201074908778537,4141943.032822723500431],[336828.543547659995966,4141940.996001597493887],[336827.855759604135528,4141936.280801156070083],[336827.782781269284897,4141932.549082853831351],[336829.515312514733523,4141929.777561292983592],[336835.037853317917325,4141927.927429875358939],[336842.525436618714593,4141925.043371405918151],[336846.935117317480035,4141927.197030869778246],[336850.381733703194186,4141930.862781736068428],[336846.200695715961047,4141940.401837532874197],[336839.517664707498625,4141953.971843658946455]]]}},
{"type":"Feature","properties":{"id":2,"cropmark":1,"replant_2024":1,"is_detected_with_natural_color":1,"comments":null,"derived_product_name":null,"replant_2025":0},"geometry":{"type":"MultiLineString","coordinates":[[[336788.371808248921297,4142330.060323413927108],[336780.557992932270281,4142326.641779212746769],[336778.509942491422407,4142323.647492121439427],[336779.661572498211171,4142315.43253140617162],[336795.554066592361778,4142319.655174764804542],[336794.402436585514806,4142324.568796127103269],[336788.371808248921297,4142330.060323413927108]]]}},
{"type":"Feature","properties":{"id":3,"cropmark":1,"replant_2024":1,"is_detected_with_natural_color":1,"comments":null,"derived_product_name":null,"replant_2025":0},"geometry":{"type":"MultiLineString","coordinates":[[[336594.125243111921009,4142009.938077160157263],[336621.961960177402943,4141945.474100797902793],[336645.403406127355993,4141901.033026184421033],[336650.714358724304475,4141889.617530350573361]]]}},
{"type":"Feature","properties":{"id":9,"cropmark":1,"replant_2024":0,"is_detected_with_natural_color":1,"comments":null,"derived_product_name":null,"replant_2025":1},"geometry":{"type":"MultiLineString","coordinates":[[[336447.188887895492371,4142046.382200146559626],[336454.270158026367426,4142049.068199161905795],[336459.397974328021519,4142034.905658900272101]]]}},
{"type":"Feature","properties":{"id":10,"cropmark":1,"replant_2024":0,"is_detected_with_natural_color":1,"comments":null,"derived_product_name":null,"replant_2025":1},"geometry":{"type":"MultiLineString","coordinates":[[[336462.816518529085442,4142052.486743363086134],[336457.688702227431349,4142050.044926076661795],[336463.549063715036027,4142036.37074927194044]]]}},
{"type":"Feature","properties":{"id":4,"cropmark":1,"replant_2024":1,"is_detected_with_natural_color":0,"comments":null,"derived_product_name":"SR","replant_2025":0},"geometry":{"type":"MultiLineString","coordinates":[[[335485.329252768890001,4142294.273889229167253],[335482.87244208768243,4142289.974470537155867],[335480.620365629903972,4142283.422975386958569],[335481.33693541190587,4142274.312302444130182],[335500.274851079622749,4142272.060225986409932],[335501.093787973339204,4142292.943116776645184],[335485.738721215748228,4142294.171522117219865]]]}},
{"type":"Feature","properties":{"id":7,"cropmark":1,"replant_2024":1,"is_detected_with_natural_color":0,"comments":null,"derived_product_name":"NDSI","replant_2025":0},"geometry":{"type":"MultiLineString","coordinates":[[[336543.661873969831504,4141996.139913060702384],[336546.732887321326416,4141997.317134845536202],[336549.189698002533987,4141990.407354804687202],[336543.866608193260618,4141988.462379681877792]]]}},
{"type":"Feature","properties":{"id":8,"cropmark":1,"replant_2024":1,"is_detected_with_natural_color":0,"comments":null,"derived_product_name":"NDSI","replant_2025":0},"geometry":{"type":"MultiLineString","coordinates":[[[336543.559506858116947,4141992.505880594719201],[336547.961292661959305,4141994.041387270670384]]]}},
{"type":"Feature","properties":{"id":12,"cropmark":1,"replant_2024":0,"is_detected_with_natural_color":0,"comments":null,"derived_product_name":"MTVI","replant_2025":0},"geometry":{"type":"MultiLineString","coordinates":[[[336431.902579752204474,4142389.741457613185048],[336455.856483894051053,4142391.788799847476184],[336458.313294575258624,4142369.268035269808024]]]}},
{"type":"Feature","properties":{"id":1,"cropmark":1,"replant_2024":1,"is_detected_with_natural_color":0,"comments":null,"derived_product_name":"PCA_COMB22","replant_2025":0},"geometry":{"type":"MultiLineString","coordinates":[[[336628.432775985682383,4141798.354609282221645],[336631.485047593712807,4141792.127975202165544],[336633.072228829900268,4141784.069978156592697],[336635.727015480748378,4141794.980221203528345]]]}},
{"type":"Feature","properties":{"id":11,"cropmark":1,"replant_2024":0,"is_detected_with_natural_color":0,"comments":null,"derived_product_name":"TCARI_OSAVI","replant_2025":0},"geometry":{"type":"MultiLineString","coordinates":[[[335449.127123709768057,4141911.021659671794623],[335456.907024200307205,4141910.202722778078169]]]}},
{"type":"Feature","properties":{"id":5,"cropmark":1,"replant_2024":1,"is_detected_with_natural_color":1,"comments":null,"derived_product_name":null,"replant_2025":0},"geometry":{"type":"MultiLineString","coordinates":[[[336662.374036268563941,4141980.514178842306137],[336675.926122208707966,4141952.921643504872918],[336676.780758258944843,4141953.410006962250918],[336664.327490097784903,4141981.612996621057391],[336662.374036268563941,4141980.514178842306137]]]}},
{"type":"Feature","properties":{"id":15,"cropmark":0,"replant_2024":0,"is_detected_with_natural_color":null,"comments":"Invented","derived_product_name":null,"replant_2025":0},"geometry":{"type":"MultiLineString","coordinates":[[[335959.186612908146344,4141615.492926497943699],[335992.763025551394094,4141620.406547860242426]]]}},
{"type":"Feature","properties":{"id":17,"cropmark":0,"replant_2024":0,"is_detected_with_natural_color":null,"comments":"Follow crop","derived_product_name":null,"replant_2025":0},"geometry":{"type":"MultiLineString","coordinates":[[[336320.870092027937062,4141722.405137974303216],[336333.563613880891353,4141688.009788437280804],[336354.855973118101247,4141692.923409800045192],[336358.13172069308348,4141680.639356393832713],[336332.744676987174898,4141673.268924349918962],[336333.97308232774958,4141652.795502006541938]]]}},
{"type":"Feature","properties":{"id":18,"cropmark":0,"replant_2024":0,"is_detected_with_natural_color":null,"comments":"Invented","derived_product_name":null,"replant_2025":0},"geometry":{"type":"MultiLineString","coordinates":[[[335871.642258967622183,4142064.28058097884059],[335873.433683422685135,4142057.52435160567984],[335880.189912796020508,4142059.418143172282726],[335878.552039008529391,4142065.764904099050909]]]}},
{"type":"Feature","properties":{"id":19,"cropmark":0,"replant_2024":0,"is_detected_with_natural_color":null,"comments":"Tractor","derived_product_name":null,"replant_2025":0},"geometry":{"type":"MultiLineString","coordinates":[[[336199.165832907368895,4142267.76592565048486],[336200.650156027229968,4142258.91117048682645],[336206.024429392418824,4142260.241942938882858],[336203.618802267068531,4142264.438994519412518],[336202.646314705722034,4142268.891963879112154],[336199.421750686655287,4142268.0730269853957]]]}}
]
}
